OSCAR 7 (AO-7)          
1 07530U 74089B   18186.54015135 -.00000025  00000-0  12138-3 0  9997
2 07530 101.6880 153.5861 0011760 301.5562 170.9784 12.53633293996666
UOSAT 2 (UO-11)         
1 14781U 84021B   18186.62256969  .00000031  00000-0  10025-4 0  9991
2 14781  97.6476 222.0512 0009182  31.8581 328.3187 14.83015299826170
LUSAT (LO-19)           
1 20442U 90005G   18186.36799262 -.00000015  00000-0  10781-4 0  9992
2 20442  98.6106 124.7485 0012954  95.9005 264.3656 14.32899236486438
ITAMSAT (IO-26)         
1 22826U 93061D   18186.84466800 -.00000002  00000-0  17068-4 0  9998
2 22826  98.8576 163.3346 0007828 284.1805  75.8506 14.30365573292421
RADIO ROSTO (RS-15)     
1 23439U 94085A   18186.60279865 -.00000024  00000-0  52918-3 0  9999
2 23439  64.8189 319.0498 0156742 178.7477 260.8137 11.27567447968643
JAS-2 (FO-29)           
1 24278U 96046B   18186.56858442 -.00000015  00000-0  18125-4 0  9992
2 24278  98.5168  22.7901 0351334  63.3188 300.3473 13.53084464 80478
TECHSAT 1B (GO-32)      
1 25397U 98043D   18186.37511434 -.00000018  00000-0  11153-4 0  9997
2 25397  98.6504 126.5134 0001245  23.0335 337.0899 14.23647902 38097
ISS (ZARYA)             
1 25544U 98067A   18186.60725947  .00001345  00000-0  27662-4 0  9994
2 25544  51.6418 286.8927 0003421 271.7611 178.1814 15.54011004121380
PCSAT (NO-44)           
1 26931U 01043C   18186.46313197 -.00000043  00000-0  15475-4 0  9991
2 26931  67.0495 182.2514 0007992 271.9556  88.0630 14.30509837875093
SAUDISAT 1C (SO-50)     
1 27607U 02058C   18186.03799612 -.00000059  00000-0  12464-4 0  9994
2 27607  64.5555  35.4706 0067102 324.5184  35.1464 14.75462108835593
CUTE-1 (CO-55)          
1 27844U 03031E   18186.60298313  .00000030  00000-0  33187-4 0  9997
2 27844  98.6859 194.9872 0009019 324.8478  35.2103 14.22121090778779
CUBESAT XI-IV (CO-57)   
1 27848U 03031J   18186.56744758  .00000019  00000-0  28419-4 0  9994
2 27848  98.6946 195.3563 0009124 336.0825  23.9928 14.21724353778645
MOZHAYETS 4 (RS-22)     
1 27939U 03042A   18186.87849501  .00000086  00000-0  23877-4 0  9990
2 27939  97.9932 325.5322 0014391  89.9549  23.7342 14.66698294789555
CUBESAT XI-V (CO-58)    
1 28895U 05043F   18186.39374735  .00000074  00000-0  22950-4 0  9992
2 28895  97.9116 337.1138 0017140  16.8781 343.2989 14.63559234676545
CUTE-1.7+APD II (CO-65) 
1 32785U 08021C   18186.47146340  .00000133  00000-0  20074-4 0  9993
2 32785  97.5464 197.7764 0012588 344.9608  15.1234 14.88140351551823
DELFI-C3 (DO-64)        
1 32789U 08021G   18186.58170939  .00000716  00000-0  53078-4 0  9997
2 32789  97.5102 240.9248 0011205 229.9821 130.0424 15.06130065554450
SEEDS II (CO-66)        
1 32791U 08021J   18186.46314555  .00000291  00000-0  35138-4 0  9996
2 32791  97.5352 203.1685 0012383 323.5707  36.4668 14.90578999552156
YUBILEINY (RS-30)       
1 32953U 08025A   18186.87265225  .00000028  00000-0  13306-3 0  9994
2 32953  82.5028   1.0558 0019384 166.6788 193.4807 12.43083886459097
KKS-1 (KISEKI)          
1 33499U 09002H   18186.76205571  .00000066  00000-0  17826-4 0  9996
2 33499  98.3568   9.1316 0008179 228.4320 131.6187 14.75341642507922
SWISSCUBE               
1 35932U 09051B   18186.37074972  .00000088  00000-0  30894-4 0  9994
2 35932  98.5477 337.9700 0008389 147.0859 213.0862 14.56172517466080
BEESAT                  
1 35933U 09051C   18186.87764598  .00000065  00000-0  25753-4 0  9993
2 35933  98.5518 340.0490 0006352 155.5408 204.6091 14.56275052466268
ITUPSAT 1               
1 35935U 09051E   18186.46175578  .00000052  00000-0  22972-4 0  9990
2 35935  98.5629 339.8752 0008706 155.2005 204.9612 14.55450849465950
XIWANG-1 (HOPE-1)       
1 36122U 09072B   18186.70973667 -.00000044  00000-0 -41304-5 0  9998
2 36122 100.0744 200.4779 0008252  71.7712 288.4300 13.16345151411082
JUGNU                   
1 37839U 11058B   18186.42776240  .00000301  00000-0  18905-4 0  9992
2 37839  19.9615 286.6470 0019116  87.6654 340.4476 14.12622692347849
SRMSAT                  
1 37841U 11058D   18186.46642765  .00000290  00000-0  14316-4 0  9992
2 37841  19.9733 335.9905 0011878 331.8491  64.4210 14.10609233347375
M-CUBED & EXP-1 PRIME   
1 37855U 11061F   18186.49609717  .00000433  00000-0  30273-4 0  9993
2 37855 101.7149 258.3932 0176321  28.1075 332.9519 15.04513528363938
STRAND-1                
1 39090U 13009E   18186.51726888  .00000000  00000-0  15472-4 0  9996
2 39090  98.5203  32.6620 0008108 239.7725 120.2657 14.35031376280434
SOMP                    
1 39134U 13015E   18186.43449203  .00000620  00000-0  38771-4 0  9991
2 39134  64.8645  67.8816 0010525 216.0696 143.9722 15.19229220287293
BEESAT-3                
1 39135U 13015F   18186.09080608  .00000502  00000-0  35429-4 0  9990
2 39135  64.8700  82.5814 0019025 237.7316 122.1967 15.16728740286973
BEESAT-2                
1 39136U 13015G   18186.19874270  .00000433  00000-0  32400-4 0  9997
2 39136  64.8705  85.0699 0021208 234.3018 125.6134 15.16194237287328
ZACUBE-1 (TSHEPISOSAT)  
1 39417U 13066B   18186.62513888  .00000083  00000-0  16849-4 0  9998
2 39417  97.5857 214.2785 0060747  94.7550 266.0604 14.80949235249521
GOMX 1                  
1 39430U 13066Q   18186.88776035  .00000135  00000-0  34000-4 0  9993
2 39430  97.6986 162.4162 0149969 271.5985  86.8043 14.59094132245876
CUBEBUG-2 (LO-74)       
1 39440U 13066AA  18186.58419947  .00000118  00000-0  23406-4 0  9996
2 39440  97.6004 200.7276 0081638 135.0177 225.7685 14.75686954247432
FUNCUBE-1 (AO-73)       
1 39444U 13066AE  18186.61135427  .00000155  00000-0  25388-4 0  9994
2 39444  97.5865 215.8140 0059861  90.2355 270.5718 14.81733073247796
UWE-3                   
1 39446U 13066AG  18186.57543526  .00000112  00000-0  21503-4 0  9992
2 39446  97.5916 207.0721 0071691 115.2858 245.5804 14.78221521247248
SPROUT                  
1 39770U 14029E   18186.76373905  .00000442  00000-0  55561-4 0  9992
2 39770  97.8766 287.6551 0009801 141.1015 219.0890 14.86883960223128
UNISAT-6                
1 40012U 14033C   18186.61296662  .00000111  00000-0  23982-4 0  9991
2 40012  97.8059  62.2005 0059344 138.8742 221.6963 14.73833427217416
DUCHIFAT-1              
1 40021U 14033M   18186.32082655  .00000329  00000-0  39665-4 0  9990
2 40021  97.9156 105.0728 0014277 115.4344 244.8353 14.90330287219651
FUNCUBE-3 (EO-79)       
1 40025U 14033R   18186.36210936  .00000159  00000-0  23025-4 0  9997
2 40025  97.9048 101.7236 0013704 121.4804 238.7754 14.88732092219490
NUDT-PHONESAT           
1 40900U 15049B   18186.58989972  .00001166  00000-0  54991-4 0  9999
2 40900  97.4405 194.6293 0012496 332.2181  27.8386 15.21407814154715
ZDPS 2A                 
1 40901U 15049C   18186.61138662  .00000481  00000-0  27612-4 0  9995
2 40901  97.4582 192.6694 0013058 340.9884  19.0861 15.17130158154457
ZDPS 2B                 
1 40902U 15049D   18186.71952424  .00000486  00000-0  28007-4 0  9991
2 40902  97.4483 190.7687 0013027 337.4906  22.5755 15.16924295154454
XW-2A                   
1 40903U 15049E   18186.81868923  .00001078  00000-0  28561-4 0  9996
2 40903  97.3826 221.8584 0013097 329.5658  30.4827 15.40579449156678
KAITUO 1A               
1 40904U 15049F   18186.76822659  .00000009  00000-0  39940-5 0  9994
2 40904  97.4584 190.0057 0014257 340.8146 104.3453 15.15043293154310
2015-049G               
1 40905U 15049G   18186.58930195  .00000196  00000-0  14372-4 0  9998
2 40905  97.4586 187.8748 0014994 332.8541  27.1905 15.13995043154201
XW-2C                   
1 40906U 15049H   18186.80929339  .00000331  00000-0  21097-4 0  9995
2 40906  97.4596 189.9592 0014156 331.4630  28.5826 15.15224089154313
XW-2D                   
1 40907U 15049J   18186.82590887  .00000420  00000-0  25715-4 0  9990
2 40907  97.4570 189.6703 0013456 329.3446  30.6999 15.15378044154327
LILACSAT 2              
1 40908U 15049K   18186.59071736  .00000158  00000-0  12451-4 0  9993
2 40908  97.4682 188.7743 0015187 331.4823  28.5576 15.13531559154150
XW-2F                   
1 40910U 15049M   18186.82573062  .00000650  00000-0  36678-4 0  9995
2 40910  97.4570 191.0190 0014023 324.3074  35.7220 15.16586713154273
XW-2B                   
1 40911U 15049N   18186.84410914  .00000428  00000-0  26164-4 0  9996
2 40911  97.4605 190.2329 0013369 329.9019  30.1444 15.15321329154221
KAITUO 1B               
1 40912U 15049P   18186.48120447  .00000833  00000-0  43220-4 0  9998
2 40912  97.4499 193.5499 0014086 312.5042 201.7580 15.18810862154447
TIANWANG 1C (TW-1C)     
1 40926U 15051B   18186.68941564  .00004612  00000-0  85813-4 0  9992
2 40926  97.1814 228.9478 0009047 198.0101 310.6583 15.49336920156171
TIANWANG 1A (TW-1A)     
1 40928U 15051D   18186.86878549  .00001261  00000-0  34914-4 0  9999
2 40928  97.1833 220.4875 0009973 252.5957 194.3170 15.38804973155652
LAPAN-A2 (IO-86)        
1 40931U 15052B   18185.95765032  .00000699  00000-0  82709-5 0  9995
2 40931   5.9998  23.3771 0013183 260.7862  99.0864 14.76578893149636
E-ST@R-II               
1 41459U 16025D   18186.40313523  .00000816  00000-0  46424-4 0  9991
2 41459  98.1342 250.0572 0171878  87.4022 274.6871 15.04460825120168
AAUSAT 4                
1 41460U 16025E   18186.76286020  .00001356  00000-0  73224-4 0  9991
2 41460  98.1283 250.9667 0163373  82.0780 279.8915 15.05935076120286
NUSAT 1 (LO-87)         
1 41557U 16033B   18186.77034419  .00000808  00000-0  32181-4 0  9999
2 41557  97.4376 270.9513 0016196  97.3736 262.9345 15.28057205116997
BEESAT-4                
1 41619U 16040W   18186.73873276  .00000838  00000-0  39521-4 0  9992
2 41619  97.4138 249.6284 0012243 157.7892 202.3877 15.22178322100914
ALSAT 1N                
1 41789U 16059G   18186.75131709  .00000062  00000-0  20921-4 0  9993
2 41789  98.1175 249.2699 0029101  31.4852 328.8074 14.64164028 94730
CAS-2T & KS-1Q          
1 41847U 16066G   18186.62166265  .00000062  00000-0  20088-4 0  9991
2 41847  98.7486 215.9104 0366074 189.5474 169.8624 14.37903354 86979
NAYIF-1 (EO-88)         
1 42017U 17008BX  18186.40942702  .00000885  00000-0  38913-4 0  9991
2 42017  97.4469 251.3581 0005298 329.3774  30.7153 15.24501963 76849
LILACSAT-1              
1 42725U 98067ME  18186.69901917  .00014423  00000-0  12096-3 0  9991
2 42725  51.6351 263.6255 0004777 313.7504  46.3098 15.70213746 63421
MAX VALIER SAT          
1 42778U 17036P   18186.20273802  .00000580  00000-0  28918-4 0  9998
2 42778  97.4019 245.6159 0012905  14.9164 345.2449 15.21350290 57241
FOX-1B (AO-91)          
1 43017U 17073E   18186.35554667  .00000189  00000-0  20741-4 0  9994
2 43017  97.7077 116.7317 0258862 212.2248 146.2921 14.78099782 33794
FOX-1D (AO-92)          
1 43137U 18004AC  18186.36639568  .00000600  00000-0  28791-4 0  9998
2 43137  97.5323 249.1167 0010601  44.8323 315.3768 15.22752244 26488
